{"fetched_at":"2026-07-23T07:05:13.950Z","source":"https://celestrak.org/NORAD/elements/gp.php?GROUP=globalstar&FORMAT=JSON","constellation":"globalstar","records":[{"OBJECT_NAME":"GLOBALSTAR M069","OBJECT_ID":"2007-020C","EPOCH":"2026-07-22T08:15:19.048608","CLASSIFICATION_TYPE":"U","MEAN_MOTION":12.2347254,"ECCENTRICITY":0.00014862,"INCLINATION":52.0018,"RA_OF_ASC_NODE":152.6174,"ARG_OF_PERICENTER":226.2046,"MEAN_ANOMALY":297.9391,"EPHEMERIS_TYPE":0,"NORAD_CAT_ID":31573,"ELEMENT_SET_NO":999,"REV_AT_EPOCH":88310,"BSTAR":0.00036290273,"MEAN_MOTION_DOT":-5.3e-7,"MEAN_MOTION_DDOT":0},{"OBJECT_NAME":"GLOBALSTAR M072","OBJECT_ID":"2007-020D","EPOCH":"2026-07-22T10:33:27.190656","CLASSIFICATION_TYPE":"U","MEAN_MOTION":11.91658759,"ECCENTRICITY":0.00016331,"INCLINATION":51.9955,"RA_OF_ASC_NODE":6.3933,"ARG_OF_PERICENTER":48.1342,"MEAN_ANOMALY":337.6937,"EPHEMERIS_TYPE":0,"NORAD_CAT_ID":31574,"ELEMENT_SET_NO":999,"REV_AT_EPOCH":87918,"BSTAR":-0.000055494365,"MEAN_MOTION_DOT":-8.8e-7,"MEAN_MOTION_DDOT":0},{"OBJECT_NAME":"GLOBALSTAR M066","OBJECT_ID":"2007-048C","EPOCH":"2026-07-22T07:50:47.963328","CLASSIFICATION_TYPE":"U","MEAN_MOTION":12.30390412,"ECCENTRICITY":0.00054808,"INCLINATION":51.961,"RA_OF_ASC_NODE":317.038,"ARG_OF_PERICENTER":116.3209,"MEAN_ANOMALY":278.95,"EPHEMERIS_TYPE":0,"NORAD_CAT_ID":32265,"ELEMENT_SET_NO":999,"REV_AT_EPOCH":86455,"BSTAR":0.00059144625,"MEAN_MOTION_DOT":-2.5e-7,"MEAN_MOTION_DDOT":0},{"OBJECT_NAME":"GLOBALSTAR M079","OBJECT_ID":"2010-054A","EPOCH":"2026-07-22T18:20:41.440128","CLASSIFICATION_TYPE":"U","MEAN_MOTION":12.62266424,"ECCENTRICITY":0.00011132,"INCLINATION":52.0059,"RA_OF_ASC_NODE":0.3677,"ARG_OF_PERICENTER":89.9803,"MEAN_ANOMALY":309.6942,"EPHEMERIS_TYPE":0,"NORAD_CAT_ID":37188,"ELEMENT_SET_NO":999,"REV_AT_EPOCH":72704,"BSTAR":0.000026196411,"MEAN_MOTION_DOT":-9.9e-7,"MEAN_MOTION_DDOT":0},{"OBJECT_NAME":"GLOBALSTAR M074","OBJECT_ID":"2010-054B","EPOCH":"2026-07-22T16:59:37.558176","CLASSIFICATION_TYPE":"U","MEAN_MOTION":12.62262042,"ECCENTRICITY":0.00008332,"INCLINATION":52.0038,"RA_OF_ASC_NODE":359.7991,"ARG_OF_PERICENTER":104.9572,"MEAN_ANOMALY":278.6412,"EPHEMERIS_TYPE":0,"NORAD_CAT_ID":37189,"ELEMENT_SET_NO":999,"REV_AT_EPOCH":72764,"BSTAR":0.00000616184,"MEAN_MOTION_DOT":-0.00000103,"MEAN_MOTION_DDOT":0},{"OBJECT_NAME":"GLOBALSTAR M076","OBJECT_ID":"2010-054C","EPOCH":"2026-07-22T20:16:02.094816","CLASSIFICATION_TYPE":"U","MEAN_MOTION":12.62262687,"ECCENTRICITY":0.00010806,"INCLINATION":52.0053,"RA_OF_ASC_NODE":359.5904,"ARG_OF_PERICENTER":102.3636,"MEAN_ANOMALY":61.2519,"EPHEMERIS_TYPE":0,"NORAD_CAT_ID":37190,"ELEMENT_SET_NO":999,"REV_AT_EPOCH":72737,"BSTAR":0.00012609369,"MEAN_MOTION_DOT":-8.1e-7,"MEAN_MOTION_DDOT":0},{"OBJECT_NAME":"GLOBALSTAR M077","OBJECT_ID":"2010-054D","EPOCH":"2026-07-22T17:31:56.056224","CLASSIFICATION_TYPE":"U","MEAN_MOTION":11.67547108,"ECCENTRICITY":0.00021463,"INCLINATION":51.9963,"RA_OF_ASC_NODE":89.0814,"ARG_OF_PERICENTER":239.1059,"MEAN_ANOMALY":154.5013,"EPHEMERIS_TYPE":0,"NORAD_CAT_ID":37191,"ELEMENT_SET_NO":999,"REV_AT_EPOCH":72529,"BSTAR":-0.00028353064,"MEAN_MOTION_DOT":-9.3e-7,"MEAN_MOTION_DDOT":0},{"OBJECT_NAME":"GLOBALSTAR M075","OBJECT_ID":"2010-054E","EPOCH":"2026-07-22T19:50:28.747968","CLASSIFICATION_TYPE":"U","MEAN_MOTION":12.62267903,"ECCENTRICITY":0.0000796,"INCLINATION":51.9957,"RA_OF_ASC_NODE":41.6779,"ARG_OF_PERICENTER":75.7772,"MEAN_ANOMALY":307.8337,"EPHEMERIS_TYPE":0,"NORAD_CAT_ID":37192,"ELEMENT_SET_NO":999,"REV_AT_EPOCH":72644,"BSTAR":-0.000008712117,"MEAN_MOTION_DOT":-0.00000105,"MEAN_MOTION_DDOT":0},{"OBJECT_NAME":"GLOBALSTAR M073","OBJECT_ID":"2010-054F","EPOCH":"2026-07-22T18:41:19.252320","CLASSIFICATION_TYPE":"U","MEAN_MOTION":12.62266975,"ECCENTRICITY":0.00009659,"INCLINATION":52.0079,"RA_OF_ASC_NODE":315.9537,"ARG_OF_PERICENTER":108.4252,"MEAN_ANOMALY":55.1213,"EPHEMERIS_TYPE":0,"NORAD_CAT_ID":37193,"ELEMENT_SET_NO":999,"REV_AT_EPOCH":72842,"BSTAR":0.000024966392,"MEAN_MOTION_DOT":-9.9e-7,"MEAN_MOTION_DDOT":0},{"OBJECT_NAME":"GLOBALSTAR M083","OBJECT_ID":"2011-033A","EPOCH":"2026-07-22T15:12:11.808864","CLASSIFICATION_TYPE":"U","MEAN_MOTION":12.62258471,"ECCENTRICITY":0.00007653,"INCLINATION":51.9856,"RA_OF_ASC_NODE":264.5775,"ARG_OF_PERICENTER":113.2846,"MEAN_ANOMALY":51.2146,"EPHEMERIS_TYPE":0,"NORAD_CAT_ID":37739,"ELEMENT_SET_NO":999,"REV_AT_EPOCH":69742,"BSTAR":0.000058112751,"MEAN_MOTION_DOT":-9.3e-7,"MEAN_MOTION_DDOT":0},{"OBJECT_NAME":"GLOBALSTAR M088","OBJECT_ID":"2011-033B","EPOCH":"2026-07-22T21:26:24.728064","CLASSIFICATION_TYPE":"U","MEAN_MOTION":12.62269574,"ECCENTRICITY":0.00001864,"INCLINATION":52.0194,"RA_OF_ASC_NODE":170.2966,"ARG_OF_PERICENTER":32.3048,"MEAN_ANOMALY":352.4969,"EPHEMERIS_TYPE":0,"NORAD_CAT_ID":37740,"ELEMENT_SET_NO":999,"REV_AT_EPOCH":69300,"BSTAR":0.00010601764,"MEAN_MOTION_DOT":-8.5e-7,"MEAN_MOTION_DDOT":0},{"OBJECT_NAME":"GLOBALSTAR M091","OBJECT_ID":"2011-033C","EPOCH":"2026-07-22T19:54:19.058400","CLASSIFICATION_TYPE":"U","MEAN_MOTION":12.62264367,"ECCENTRICITY":0.00005986,"INCLINATION":51.9992,"RA_OF_ASC_NODE":133.4047,"ARG_OF_PERICENTER":36.3048,"MEAN_ANOMALY":358.2285,"EPHEMERIS_TYPE":0,"NORAD_CAT_ID":37741,"ELEMENT_SET_NO":999,"REV_AT_EPOCH":69378,"BSTAR":0.000050791479,"MEAN_MOTION_DOT":-9.5e-7,"MEAN_MOTION_DDOT":0},{"OBJECT_NAME":"GLOBALSTAR M085","OBJECT_ID":"2011-033D","EPOCH":"2026-07-22T17:43:31.895904","CLASSIFICATION_TYPE":"U","MEAN_MOTION":12.62264539,"ECCENTRICITY":0.00009103,"INCLINATION":52.0129,"RA_OF_ASC_NODE":85.0047,"ARG_OF_PERICENTER":54.758,"MEAN_ANOMALY":346.8564,"EPHEMERIS_TYPE":0,"NORAD_CAT_ID":37742,"ELEMENT_SET_NO":999,"REV_AT_EPOCH":69428,"BSTAR":-0.000001392721,"MEAN_MOTION_DOT":-0.00000104,"MEAN_MOTION_DDOT":0},{"OBJECT_NAME":"GLOBALSTAR M081","OBJECT_ID":"2011-033E","EPOCH":"2026-07-22T14:21:52.966080","CLASSIFICATION_TYPE":"U","MEAN_MOTION":12.62265457,"ECCENTRICITY":0.00007777,"INCLINATION":51.996,"RA_OF_ASC_NODE":87.8265,"ARG_OF_PERICENTER":64.8097,"MEAN_ANOMALY":300.0557,"EPHEMERIS_TYPE":0,"NORAD_CAT_ID":37743,"ELEMENT_SET_NO":999,"REV_AT_EPOCH":69441,"BSTAR":0.00003532486,"MEAN_MOTION_DOT":-9.7e-7,"MEAN_MOTION_DDOT":0},{"OBJECT_NAME":"GLOBALSTAR M089","OBJECT_ID":"2011-033F","EPOCH":"2026-07-22T19:10:36.336288","CLASSIFICATION_TYPE":"U","MEAN_MOTION":12.62267677,"ECCENTRICITY":0.00007236,"INCLINATION":51.9941,"RA_OF_ASC_NODE":41.3673,"ARG_OF_PERICENTER":99.1495,"MEAN_ANOMALY":278.4393,"EPHEMERIS_TYPE":0,"NORAD_CAT_ID":37744,"ELEMENT_SET_NO":999,"REV_AT_EPOCH":69528,"BSTAR":0.000018696051,"MEAN_MOTION_DOT":-0.000001,"MEAN_MOTION_DDOT":0},{"OBJECT_NAME":"GLOBALSTAR M084","OBJECT_ID":"2011-080A","EPOCH":"2026-07-22T22:15:53.807040","CLASSIFICATION_TYPE":"U","MEAN_MOTION":12.62263728,"ECCENTRICITY":0.00006587,"INCLINATION":52.0004,"RA_OF_ASC_NODE":268.4782,"ARG_OF_PERICENTER":144.0188,"MEAN_ANOMALY":38.2655,"EPHEMERIS_TYPE":0,"NORAD_CAT_ID":38040,"ELEMENT_SET_NO":999,"REV_AT_EPOCH":67327,"BSTAR":0.00005815102,"MEAN_MOTION_DOT":-9.3e-7,"MEAN_MOTION_DDOT":0}]}
